[{"OBJECT_NAME":"STARLINK-31475","OBJECT_ID":"2024-056Q","EPOCH":"2026-03-09T10:35:55.033152","MEAN_MOTION":15.27574143,"ECCENTRICITY":0.00013835,"INCLINATION":43.004,"RA_OF_ASC_NODE":228.8918,"ARG_OF_PERICENTER":247.8741,"MEAN_ANOMALY":112.1964,"EPHEMERIS_TYPE":0,"CLASSIFICATION_TYPE":"U","NORAD_CAT_ID":59310,"ELEMENT_SET_NO":999,"REV_AT_EPOCH":11127,"BSTAR":2.126903e-5,"MEAN_MOTION_DOT":3.23e-6,"MEAN_MOTION_DDOT":0},{"OBJECT_NAME":"LIZZIESAT-2 (LS-2)","OBJECT_ID":"2024-247G","EPOCH":"2026-03-09T11:47:37.199328","MEAN_MOTION":15.28222796,"ECCENTRICITY":0.00040927,"INCLINATION":44.9909,"RA_OF_ASC_NODE":117.0823,"ARG_OF_PERICENTER":327.5136,"MEAN_ANOMALY":32.5495,"EPHEMERIS_TYPE":0,"CLASSIFICATION_TYPE":"U","NORAD_CAT_ID":62383,"ELEMENT_SET_NO":999,"REV_AT_EPOCH":6771,"BSTAR":0.00034516624,"MEAN_MOTION_DOT":9.388e-5,"MEAN_MOTION_DDOT":0}]
